{
  "norad_id": 59535,
  "name": "STARLINK-31738",
  "history": [
    {
      "epoch": "2026-04-15T09:51:11.562336Z",
      "apogee_km": 483.9633236884383,
      "perigee_km": 482.13715009346834,
      "latitude_deg": 2.8969507178819047e-05,
      "longitude_deg": 140.94104115980232,
      "height_km": 482.89628260155905,
      "semi_major_axis_km": 6861.1872368909535,
      "eccentricity": 0.00013308,
      "inclination_deg": 43.0018,
      "raan_deg": 132.3122,
      "arg_perigee_deg": 265.6525,
      "mean_anomaly_deg": 94.4175,
      "mean_motion_rev_day": 15.27579619
    },
    {
      "epoch": "2026-04-16T09:23:32.368704Z",
      "apogee_km": 484.0018931750037,
      "perigee_km": 482.0958557390786,
      "latitude_deg": -3.386867265769164e-05,
      "longitude_deg": 141.34856585567553,
      "height_km": 482.84492656585195,
      "semi_major_axis_km": 6861.185874457041,
      "eccentricity": 0.0001389,
      "inclination_deg": 43.0019,
      "raan_deg": 126.7732,
      "arg_perigee_deg": 268.8488,
      "mean_anomaly_deg": 91.2204,
      "mean_motion_rev_day": 15.27580074
    },
    {
      "epoch": "2026-04-17T08:55:53.351328Z",
      "apogee_km": 484.0400808633203,
      "perigee_km": 482.07640678453845,
      "latitude_deg": 2.0864039373334853e-05,
      "longitude_deg": 141.75587917635565,
      "height_km": 482.81087379375236,
      "semi_major_axis_km": 6861.195243823929,
      "eccentricity": 0.0001431,
      "inclination_deg": 43.0023,
      "raan_deg": 121.2346,
      "arg_perigee_deg": 271.4214,
      "mean_anomaly_deg": 88.6474,
      "mean_motion_rev_day": 15.27576945
    },
    {
      "epoch": "2026-04-18T08:28:13.931328Z",
      "apogee_km": 484.02059859935525,
      "perigee_km": 482.086977811422,
      "latitude_deg": -1.149258088799688e-05,
      "longitude_deg": 142.1643809636726,
      "height_km": 482.83643627503915,
      "semi_major_axis_km": 6861.190788205388,
      "eccentricity": 0.00014091,
      "inclination_deg": 43.0025,
      "raan_deg": 115.6956,
      "arg_perigee_deg": 269.6646,
      "mean_anomaly_deg": 90.4044,
      "mean_motion_rev_day": 15.27578433
    },
    {
      "epoch": "2026-04-19T06:26:24.904320Z",
      "apogee_km": 484.0242842876023,
      "perigee_km": 482.05649861173424,
      "latitude_deg": -4.147480832788259e-05,
      "longitude_deg": 166.54636372661676,
      "height_km": 482.8746445486533,
      "semi_major_axis_km": 6861.177391449668,
      "eccentricity": 0.0001434,
      "inclination_deg": 43.0027,
      "raan_deg": 110.5256,
      "arg_perigee_deg": 266.6655,
      "mean_anomaly_deg": 93.4032,
      "mean_motion_rev_day": 15.27582907
    },
    {
      "epoch": "2026-04-20T09:07:06.595680Z",
      "apogee_km": 484.1154219676828,
      "perigee_km": 482.1013719938528,
      "latitude_deg": 4.823547293561351e-06,
      "longitude_deg": 118.99846063910151,
      "height_km": 483.0882944737525,
      "semi_major_axis_km": 6861.2453969807675,
      "eccentricity": 0.00014677,
      "inclination_deg": 43.0024,
      "raan_deg": 104.247,
      "arg_perigee_deg": 258.3748,
      "mean_anomaly_deg": 101.6939,
      "mean_motion_rev_day": 15.27560196
    },
    {
      "epoch": "2026-04-21T10:13:36.442272Z",
      "apogee_km": 483.897294938356,
      "perigee_km": 482.24305788812217,
      "latitude_deg": -8.25141730990277e-06,
      "longitude_deg": 95.43672255072875,
      "height_km": 482.97224520372384,
      "semi_major_axis_km": 6861.207176413239,
      "eccentricity": 0.00012055,
      "inclination_deg": 43.0032,
      "raan_deg": 98.3408,
      "arg_perigee_deg": 261.2936,
      "mean_anomaly_deg": 98.7779,
      "mean_motion_rev_day": 15.2757296
    },
    {
      "epoch": "2026-04-22T16:02:34.023840Z",
      "apogee_km": 484.08283413189656,
      "perigee_km": 482.0285930334503,
      "latitude_deg": 3.64843128201307e-05,
      "longitude_deg": -0.04575547122432064,
      "height_km": 483.00205775102876,
      "semi_major_axis_km": 6861.192713582674,
      "eccentricity": 0.0001497,
      "inclination_deg": 43.0023,
      "raan_deg": 91.3227,
      "arg_perigee_deg": 260.5098,
      "mean_anomaly_deg": 99.5585,
      "mean_motion_rev_day": 15.2757779
    },
    {
      "epoch": "2026-04-23T07:44:07.915776Z",
      "apogee_km": 484.105482771216,
      "perigee_km": 481.97577323548285,
      "latitude_deg": -3.092470184319183e-06,
      "longitude_deg": 120.22840629787036,
      "height_km": 482.76381290276873,
      "semi_major_axis_km": 6861.177628003349,
      "eccentricity": 0.0001552,
      "inclination_deg": 43.0047,
      "raan_deg": 87.6326,
      "arg_perigee_deg": 272.916,
      "mean_anomaly_deg": 87.1514,
      "mean_motion_rev_day": 15.27582828
    },
    {
      "epoch": "2026-04-24T21:23:52.799712Z",
      "apogee_km": 483.7251951758435,
      "perigee_km": 482.31454132373074,
      "latitude_deg": -9.649819175874364e-06,
      "longitude_deg": -95.11946169271337,
      "height_km": 482.9614912358958,
      "semi_major_axis_km": 6861.156868249786,
      "eccentricity": 0.0001028,
      "inclination_deg": 43.0025,
      "raan_deg": 78.7685,
      "arg_perigee_deg": 256.4705,
      "mean_anomaly_deg": 103.6032,
      "mean_motion_rev_day": 15.27589761
    },
    {
      "epoch": "2026-04-25T14:39:35.996256Z",
      "apogee_km": 483.9601833703555,
      "perigee_km": 482.139224419142,
      "latitude_deg": -4.0830624351065586e-05,
      "longitude_deg": 1.1813942164733795,
      "height_km": 482.81914787765555,
      "semi_major_axis_km": 6861.1867038947485,
      "eccentricity": 0.0001327,
      "inclination_deg": 43.0037,
      "raan_deg": 74.7083,
      "arg_perigee_deg": 270.4792,
      "mean_anomaly_deg": 89.5907,
      "mean_motion_rev_day": 15.27579797
    },
    {
      "epoch": "2026-04-26T22:02:44.054880Z",
      "apogee_km": 483.8512269657176,
      "perigee_km": 482.26629074542143,
      "latitude_deg": -2.1549475749668403e-05,
      "longitude_deg": -118.27682197013594,
      "height_km": 482.82716288469214,
      "semi_major_axis_km": 6861.19575885557,
      "eccentricity": 0.0001155,
      "inclination_deg": 43.0042,
      "raan_deg": 67.3226,
      "arg_perigee_deg": 270.6191,
      "mean_anomaly_deg": 89.4528,
      "mean_motion_rev_day": 15.27576773
    },
    {
      "epoch": "2026-04-26T22:02:44.055744Z",
      "apogee_km": 483.85150141354734,
      "perigee_km": 482.2660162975917,
      "latitude_deg": -1.8391844911203427e-05,
      "longitude_deg": -118.27682221307079,
      "height_km": 482.82715991833817,
      "semi_major_axis_km": 6861.19575885557,
      "eccentricity": 0.00011554,
      "inclination_deg": 43.0042,
      "raan_deg": 67.3226,
      "arg_perigee_deg": 270.6191,
      "mean_anomaly_deg": 89.4528,
      "mean_motion_rev_day": 15.27576773
    },
    {
      "epoch": "2026-04-28T21:07:25.912128Z",
      "apogee_km": 483.8433476151358,
      "perigee_km": 482.2968315371454,
      "latitude_deg": -3.901255709778992e-05,
      "longitude_deg": -117.46308111929677,
      "height_km": 482.82488119470844,
      "semi_major_axis_km": 6861.20708957614,
      "eccentricity": 0.0001127,
      "inclination_deg": 43.0045,
      "raan_deg": 56.2442,
      "arg_perigee_deg": 271.6443,
      "mean_anomaly_deg": 88.4279,
      "mean_motion_rev_day": 15.27572989
    },
    {
      "epoch": "2026-04-29T12:48:59.690016Z",
      "apogee_km": 483.907775561569,
      "perigee_km": 482.2145690766047,
      "latitude_deg": 1.9165691896677156e-06,
      "longitude_deg": 2.8102445944774765,
      "height_km": 482.920579097792,
      "semi_major_axis_km": 6861.198172319087,
      "eccentricity": 0.00012339,
      "inclination_deg": 43.0055,
      "raan_deg": 52.5527,
      "arg_perigee_deg": 264.4249,
      "mean_anomaly_deg": 95.6462,
      "mean_motion_rev_day": 15.27575967
    },
    {
      "epoch": "2026-04-30T12:21:21.082176Z",
      "apogee_km": 483.9063726247232,
      "perigee_km": 482.24321488591704,
      "latitude_deg": -3.4418735869421917e-06,
      "longitude_deg": 3.2149810609907283,
      "height_km": 483.05504880332944,
      "semi_major_axis_km": 6861.21179375532,
      "eccentricity": 0.0001212,
      "inclination_deg": 43.0061,
      "raan_deg": 47.0133,
      "arg_perigee_deg": 255.8641,
      "mean_anomaly_deg": 104.2076,
      "mean_motion_rev_day": 15.27571418
    },
    {
      "epoch": "2026-05-02T03:35:14.702208Z",
      "apogee_km": 483.8307734653199,
      "perigee_km": 482.2568185907112,
      "latitude_deg": 2.3679206320802587e-05,
      "longitude_deg": 123.90060831183125,
      "height_km": 482.9984828542294,
      "semi_major_axis_km": 6861.180796028016,
      "eccentricity": 0.0001147,
      "inclination_deg": 43.0038,
      "raan_deg": 37.7835,
      "arg_perigee_deg": 256.9404,
      "mean_anomaly_deg": 103.132,
      "mean_motion_rev_day": 15.2758177
    },
    {
      "epoch": "2026-05-03T18:49:09.926688Z",
      "apogee_km": 483.7116357541445,
      "perigee_km": 482.38331044015285,
      "latitude_deg": 1.4192724868779591e-05,
      "longitude_deg": -115.42350932645687,
      "height_km": 482.80071963275407,
      "semi_major_axis_km": 6861.184473097149,
      "eccentricity": 9.68e-05,
      "inclination_deg": 43.0036,
      "raan_deg": 28.5507,
      "arg_perigee_deg": 272.0266,
      "mean_anomaly_deg": 88.0475,
      "mean_motion_rev_day": 15.27580542
    },
    {
      "epoch": "2026-05-04T10:30:44.047584Z",
      "apogee_km": 483.6869951489789,
      "perigee_km": 482.45293846392906,
      "latitude_deg": 4.246949977697117e-06,
      "longitude_deg": 4.8468265920788,
      "height_km": 482.79554684008554,
      "semi_major_axis_km": 6861.206966806454,
      "eccentricity": 8.993e-05,
      "inclination_deg": 43.0034,
      "raan_deg": 24.8577,
      "arg_perigee_deg": 274.748,
      "mean_anomaly_deg": 85.3269,
      "mean_motion_rev_day": 15.2757303
    }
  ]
}